start=new Date('2021-11-13T00:00:00.000Z').valueOf();
sats=[{"OBJECT_NAME":"STARLINK-2316","SITE":"AFETR","GP_ID":"189646886","LAUNCH_DATE":"2021-03-24","PERIOD":"91.878","BSTAR":"-0.00653640000000","INCLINATION":"53.0545","SEMIMAJOR_AXIS":"6744.762","ELEMENT_SET_NO":"999","OBJECT_TYPE":"PAYLOAD","ECCENTRICITY":"0.00013330","EPOCH":"2021-11-12T20:00:01.000224","EPHEMERIS_TYPE":"0","PERIAPSIS":"365.728","MEAN_MOTION_DDOT":"0.0000000000000","RCS_SIZE":"LARGE","CLASSIFICATION_TYPE":"U","DECAY_DATE":null,"TLE_LINE1":"1 47984U 21024H   21316.83334491 -.00663032  00000-0 -65364-2 0  9997","ARG_OF_PERICENTER":"49.6258","OBJECT_ID":"2021-024H","FILE":"3213639","NORAD_CAT_ID":"47984","MEAN_ANOMALY":"298.5279","MEAN_ELEMENT_THEORY":"SGP4","RA_OF_ASC_NODE":"124.3653","REF_FRAME":"TEME","APOAPSIS":"367.526","MEAN_MOTION":"15.67302516","TLE_LINE2":"2 47984  53.0545 124.3653 0001333  49.6258 298.5279 15.67302516  3746","CENTER_NAME":"EARTH","TIME_SYSTEM":"UTC","REV_AT_EPOCH":"374","COUNTRY_CODE":"US","MEAN_MOTION_DOT":"-0.00663032"},{"REV_AT_EPOCH":"362","MEAN_MOTION_DOT":"-0.00013591","COUNTRY_CODE":"US","CENTER_NAME":"EARTH","TLE_LINE2":"2 47985  53.0543 153.9346 0001819  73.1322 203.5481 15.04757037  3626","MEAN_MOTION":"15.04757037","TIME_SYSTEM":"UTC","REF_FRAME":"TEME","RA_OF_ASC_NODE":"153.9346","APOAPSIS":"553.514","MEAN_ELEMENT_THEORY":"SGP4","FILE":"3213639","MEAN_ANOMALY":"203.5481","NORAD_CAT_ID":"47985","OBJECT_ID":"2021-024J","ARG_OF_PERICENTER":"73.1322","TLE_LINE1":"1 47985U 21024J   21316.83334491 -.00013591  00000-0 -93602-3 0  9994","CLASSIFICATION_TYPE":"U","DECAY_DATE":null,"PERIAPSIS":"550.993","RCS_SIZE":"LARGE","MEAN_MOTION_DDOT":"0.0000000000000","ECCENTRICITY":"0.00018190","EPHEMERIS_TYPE":"0","EPOCH":"2021-11-12T20:00:01.000224","OBJECT_TYPE":"PAYLOAD","ELEMENT_SET_NO":"999","SEMIMAJOR_AXIS":"6930.389","INCLINATION":"53.0543","BSTAR":"-0.00093602000000","SITE":"AFETR","PERIOD":"95.697","GP_ID":"189645653","LAUNCH_DATE":"2021-03-24","OBJECT_NAME":"STARLINK-2308"},{"ECCENTRICITY":"0.00078300","EPOCH":"2021-11-12T20:00:01.000224","EPHEMERIS_TYPE":"0","PERIAPSIS":"349.858","MEAN_MOTION_DDOT":"0.0000000000000","RCS_SIZE":"LARGE","INCLINATION":"53.0317","SEMIMAJOR_AXIS":"6733.265","ELEMENT_SET_NO":"999","OBJECT_TYPE":"PAYLOAD","SITE":"AFETR","GP_ID":"189646402","PERIOD":"91.643","LAUNCH_DATE":"2021-03-24","BSTAR":"0.00045791000000","OBJECT_NAME":"STARLINK-2313","TLE_LINE2":"2 47986  53.0317 119.7668 0007830 340.2207 259.9694 15.71318305  3730","MEAN_MOTION":"15.71318305","CENTER_NAME":"EARTH","TIME_SYSTEM":"UTC","REV_AT_EPOCH":"373","COUNTRY_CODE":"US","MEAN_MOTION_DOT":"0.00059249","MEAN_ELEMENT_THEORY":"SGP4","REF_FRAME":"TEME","RA_OF_ASC_NODE":"119.7668","APOAPSIS":"360.402","TLE_LINE1":"1 47986U 21024K   21316.83334491  .00059249  00000-0  45791-3 0  9999","ARG_OF_PERICENTER":"340.2207","OBJECT_ID":"2021-024K","FILE":"3213639","NORAD_CAT_ID":"47986","MEAN_ANOMALY":"259.9694","CLASSIFICATION_TYPE":"U","DECAY_DATE":null},{"OBJECT_NAME":"STARLINK-2311","PERIOD":"91.533","GP_ID":"189646641","LAUNCH_DATE":"2021-03-24","SITE":"AFETR","BSTAR":"0.00012619000000","SEMIMAJOR_AXIS":"6727.867","INCLINATION":"53.0590","ELEMENT_SET_NO":"999","OBJECT_TYPE":"PAYLOAD","EPHEMERIS_TYPE":"0","EPOCH":"2021-11-12T22:00:00.999936","ECCENTRICITY":"0.00034290","RCS_SIZE":"LARGE","MEAN_MOTION_DDOT":"0.0000000000000","PERIAPSIS":"347.425","DECAY_DATE":null,"CLASSIFICATION_TYPE":"U","OBJECT_ID":"2021-024L","ARG_OF_PERICENTER":"13.4120","TLE_LINE1":"1 47987U 21024L   21316.91667824  .00017137  00000-0  12619-3 0  9991","MEAN_ANOMALY":"298.3395","NORAD_CAT_ID":"47987","FILE":"3213639","MEAN_ELEMENT_THEORY":"SGP4","APOAPSIS":"352.039","RA_OF_ASC_NODE":"123.5270","REF_FRAME":"TEME","TIME_SYSTEM":"UTC","CENTER_NAME":"EARTH","MEAN_MOTION":"15.73209959","TLE_LINE2":"2 47987  53.0590 123.5270 0003429  13.4120 298.3395 15.73209959  3752","MEAN_MOTION_DOT":"0.00017137","COUNTRY_CODE":"US","REV_AT_EPOCH":"375"},{"LAUNCH_DATE":"2021-03-24","GP_ID":"189647270","PERIOD":"95.593","SITE":"AFETR","BSTAR":"0.00008798900000","OBJECT_NAME":"STARLINK-2306","EPOCH":"2021-11-12T22:17:42.088704","EPHEMERIS_TYPE":"0","ECCENTRICITY":"0.00015980","MEAN_MOTION_DDOT":"0.0000000000000","RCS_SIZE":"LARGE","PERIAPSIS":"546.128","INCLINATION":"53.0563","SEMIMAJOR_AXIS":"6925.370","OBJECT_TYPE":"PAYLOAD","ELEMENT_SET_NO":"999","TLE_LINE1":"1 47988U 21024M   21316.92895936  .00001029  00000-0  87989-4 0  9996","OBJECT_ID":"2021-024M","ARG_OF_PERICENTER":"70.2979","NORAD_CAT_ID":"47988","MEAN_ANOMALY":"289.8183","FILE":"3213639","DECAY_DATE":null,"CLASSIFICATION_TYPE":"U","TIME_SYSTEM":"UTC","MEAN_MOTION":"15.06392980","TLE_LINE2":"2 47988  53.0563 194.4615 0001598  70.2979 289.8183 15.06392980 37043","CENTER_NAME":"EARTH","COUNTRY_CODE":"US","MEAN_MOTION_DOT":"0.00001029","REV_AT_EPOCH":"3704","MEAN_ELEMENT_THEORY":"SGP4","APOAPSIS":"548.342","RA_OF_ASC_NODE":"194.4615","REF_FRAME":"TEME"},{"ELEMENT_SET_NO":"999","OBJECT_TYPE":"PAYLOAD","INCLINATION":"53.0453","SEMIMAJOR_AXIS":"6893.568","PERIAPSIS":"514.397","RCS_SIZE":"MEDIUM","MEAN_MOTION_DDOT":"0.0000000000000","ECCENTRICITY":"0.00015030","EPHEMERIS_TYPE":"0","EPOCH":"2021-11-12T20:00:01.000224","OBJECT_NAME":"STARLINK-2305","BSTAR":"-0.05040200000000","SITE":"AFETR","GP_ID":"189645153","LAUNCH_DATE":"2021-03-24","PERIOD":"94.935","REF_FRAME":"TEME","RA_OF_ASC_NODE":"130.0826","APOAPSIS":"516.469","MEAN_ELEMENT_THEORY":"SGP4","REV_AT_EPOCH":"369","MEAN_MOTION_DOT":"-0.00928339","COUNTRY_CODE":"US","CENTER_NAME":"EARTH","MEAN_MOTION":"15.16829258","TLE_LINE2":"2 47989  53.0453 130.0826 0001503  51.6722 352.2578 15.16829258  3698","TIME_SYSTEM":"UTC","CLASSIFICATION_TYPE":"U","DECAY_DATE":null,"FILE":"3213639","NORAD_CAT_ID":"47989","MEAN_ANOMALY":"352.2578","ARG_OF_PERICENTER":"51.6722","OBJECT_ID":"2021-024N","TLE_LINE1":"1 47989U 21024N   21316.83334491 -.00928339  00000-0 -50402-1 0  9992"},{"ELEMENT_SET_NO":"999","OBJECT_TYPE":"PAYLOAD","INCLINATION":"53.0545","SEMIMAJOR_AXIS":"6899.314","RCS_SIZE":"LARGE","MEAN_MOTION_DDOT":"0.0000000000000","PERIAPSIS":"520.311","EPHEMERIS_TYPE":"0","EPOCH":"2021-11-12T20:00:01.000224","ECCENTRICITY":"0.00012580","OBJECT_NAME":"STARLINK-2307","BSTAR":"-0.06075200000000","GP_ID":"189645902","LAUNCH_DATE":"2021-03-24","PERIOD":"95.054","SITE":"AFETR","APOAPSIS":"522.047","RA_OF_ASC_NODE":"130.0428","REF_FRAME":"TEME","MEAN_ELEMENT_THEORY":"SGP4","MEAN_MOTION_DOT":"-0.01062182","COUNTRY_CODE":"US","REV_AT_EPOCH":"369","TIME_SYSTEM":"UTC","CENTER_NAME":"EARTH","MEAN_MOTION":"15.14934600","TLE_LINE2":"2 47990  53.0545 130.0428 0001258  90.6196 255.2226 15.14934600  3693","DECAY_DATE":null,"CLASSIFICATION_TYPE":"U","MEAN_ANOMALY":"255.2226","NORAD_CAT_ID":"47990","FILE":"3213639","ARG_OF_PERICENTER":"90.6196","OBJECT_ID":"2021-024P","TLE_LINE1":"1 47990U 21024P   21316.83334491 -.01062182  00000-0 -60752-1 0  9999"},{"TLE_LINE1":"1 47991U 21024Q   21316.83334491  .00021188  00000-0  15019-2 0  9995","OBJECT_ID":"2021-024Q","ARG_OF_PERICENTER":"69.3374","MEAN_ANOMALY":"153.9788","NORAD_CAT_ID":"47991","FILE":"3213639","DECAY_DATE":null,"CLASSIFICATION_TYPE":"U","TIME_SYSTEM":"UTC","MEAN_MOTION":"15.04750954","TLE_LINE2":"2 47991  53.0543 143.7266 0001625  69.3374 153.9788 15.04750954  3630","CENTER_NAME":"EARTH","COUNTRY_CODE":"US","MEAN_MOTION_DOT":"0.00021188","REV_AT_EPOCH":"363","MEAN_ELEMENT_THEORY":"SGP4","APOAPSIS":"553.398","RA_OF_ASC_NODE":"143.7266","REF_FRAME":"TEME","LAUNCH_DATE":"2021-03-24","GP_ID":"189646141","PERIOD":"95.697","SITE":"AFETR","BSTAR":"0.00150190000000","OBJECT_NAME":"STARLINK-2279","EPOCH":"2021-11-12T20:00:01.000224","EPHEMERIS_TYPE":"0","ECCENTRICITY":"0.00016250","MEAN_MOTION_DDOT":"0.0000000000000","RCS_SIZE":"LARGE","PERIAPSIS":"551.146","INCLINATION":"53.0543","SEMIMAJOR_AXIS":"6930.407","OBJECT_TYPE":"PAYLOAD","ELEMENT_SET_NO":"999"},{"REV_AT_EPOCH":"365","COUNTRY_CODE":"US","MEAN_MOTION_DOT":"0.00034281","MEAN_MOTION":"15.06379119","TLE_LINE2":"2 47992  53.0543 139.5063 0002283  59.0945 301.9144 15.06379119  3655","CENTER_NAME":"EARTH","TIME_SYSTEM":"UTC","REF_FRAME":"TEME","RA_OF_ASC_NODE":"139.5063","APOAPSIS":"548.859","MEAN_ELEMENT_THEORY":"SGP4","FILE":"3213639","NORAD_CAT_ID":"47992","MEAN_ANOMALY":"301.9144","TLE_LINE1":"1 47992U 21024R   21316.91667824  .00034281  00000-0  23104-2 0  9996","ARG_OF_PERICENTER":"59.0945","OBJECT_ID":"2021-024R","CLASSIFICATION_TYPE":"U","DECAY_DATE":null,"PERIAPSIS":"545.696","MEAN_MOTION_DDOT":"0.0000000000000","RCS_SIZE":"LARGE","ECCENTRICITY":"0.00022830","EPOCH":"2021-11-12T22:00:00.999936","EPHEMERIS_TYPE":"0","ELEMENT_SET_NO":"999","OBJECT_TYPE":"PAYLOAD","INCLINATION":"53.0543","SEMIMAJOR_AXIS":"6925.413","BSTAR":"0.00231040000000","SITE":"AFETR","GP_ID":"189646887","LAUNCH_DATE":"2021-03-24","PERIOD":"95.593","OBJECT_NAME":"STARLINK-2229"},{"REF_FRAME":"TEME","RA_OF_ASC_NODE":"179.4454","APOAPSIS":"548.276","MEAN_ELEMENT_THEORY":"SGP4","REV_AT_EPOCH":"3731","COUNTRY_CODE":"US","MEAN_MOTION_DOT":"-0.00000658","TLE_LINE2":"2 47993  53.0553 179.4454 0001526  85.4375 274.6789 15.06398123 37310","MEAN_MOTION":"15.06398123","CENTER_NAME":"EARTH","TIME_SYSTEM":"UTC","CLASSIFICATION_TYPE":"U","DECAY_DATE":null,"FILE":"3213639","MEAN_ANOMALY":"274.6789","NORAD_CAT_ID":"47993","TLE_LINE1":"1 47993U 21024S   21316.93218281 -.00000658  00000-0 -25247-4 0  9993","ARG_OF_PERICENTER":"85.4375","OBJECT_ID":"2021-024S","OBJECT_TYPE":"PAYLOAD","ELEMENT_SET_NO":"999","INCLINATION":"53.0553","SEMIMAJOR_AXIS":"6925.354","PERIAPSIS":"546.163","MEAN_MOTION_DDOT":"0.0000000000000","RCS_SIZE":"LARGE","ECCENTRICITY":"0.00015260","EPOCH":"2021-11-12T22:22:20.594784","EPHEMERIS_TYPE":"0","OBJECT_NAME":"STARLINK-2273","BSTAR":"-0.00002524700000","SITE":"AFETR","GP_ID":"189645654","PERIOD":"95.592","LAUNCH_DATE":"2021-03-24"}];
